{
  "type": "FeatureCollection",
  "features": [
    {
      "type": "Feature",
      "properties": {
        "norad_id": 43719,
        "name": "HYSIS",
        "group": "resource",
        "lat": 67.99108551124573,
        "lon": -111.72215315507206,
        "alt_km": 626.4159895321573,
        "timestamp": "2025-12-10T21:43:21.744241+00:00",
        "meta_object_name": "HYSIS",
        "meta_object_id": "2018-096A",
        "meta_epoch": "2025-12-10T14:43:42.047040",
        "meta_mean_motion": 14.78636617,
        "meta_eccentricity": 0.0001507,
        "meta_inclination": 98.0095,
        "meta_ra_of_asc_node": 47.6016,
        "meta_arg_of_pericenter": 55.7555,
        "meta_mean_anomaly": 304.3799,
        "meta_ephemeris_type": 0,
        "meta_classification_type": "U",
        "meta_norad_cat_id": 43719,
        "meta_element_set_no": 999,
        "meta_rev_at_epoch": 37955,
        "meta_bstar": 0.00032425416,
        "meta_mean_motion_dot": 2.323e-05,
        "meta_mean_motion_ddot": 0,
        "tle_line1": "1 43719U 18096A   25344.61368110  .00002323  00000+0  32425-3 0  9990",
        "tle_line2": "2 43719  98.0095  47.6016 0001507  55.7555 304.3799 14.78636617379559"
      },
      "geometry": {
        "type": "Point",
        "coordinates": [
          -111.72215315507206,
          67.99108551124573
        ]
      }
    },
    {
      "type": "Feature",
      "properties": {
        "norad_id": 43783,
        "name": "KAZSTSAT",
        "group": "resource",
        "lat": -29.988406390853523,
        "lon": -164.16532391323784,
        "alt_km": 577.5027566464933,
        "timestamp": "2025-12-10T21:43:21.744251+00:00",
        "meta_object_name": "KAZSTSAT",
        "meta_object_id": "2018-099AB",
        "meta_epoch": "2025-12-10T12:46:45.637824",
        "meta_mean_motion": 14.99342701,
        "meta_eccentricity": 0.00060019,
        "meta_inclination": 97.4559,
        "meta_ra_of_asc_node": 19.8122,
        "meta_arg_of_pericenter": 339.526,
        "meta_mean_anomaly": 20.5722,
        "meta_ephemeris_type": 0,
        "meta_classification_type": "U",
        "meta_norad_cat_id": 43783,
        "meta_element_set_no": 999,
        "meta_rev_at_epoch": 38303,
        "meta_bstar": 0.00019655623,
        "meta_mean_motion_dot": 2.347e-05,
        "meta_mean_motion_ddot": 0,
        "tle_line1": "1 43783U 18099AB  25344.53247266  .00002347  00000+0  19656-3 0  9990",
        "tle_line2": "2 43783  97.4559  19.8122 0006001 339.5260  20.5722 14.99342701383039"
      },
      "geometry": {
        "type": "Point",
        "coordinates": [
          -164.16532391323784,
          -29.988406390853523
        ]
      }
    },
    {
      "type": "Feature",
      "properties": {
        "norad_id": 43831,
        "name": "SAUDISAT 5A",
        "group": "resource",
        "lat": 82.64787243789172,
        "lon": -41.59871265128348,
        "alt_km": 473.42115001862567,
        "timestamp": "2025-12-10T21:43:21.744261+00:00",
        "meta_object_name": "SAUDISAT 5A",
        "meta_object_id": "2018-102A",
        "meta_epoch": "2025-12-10T15:02:08.231424",
        "meta_mean_motion": 15.25614394,
        "meta_eccentricity": 0.00118111,
        "meta_inclination": 97.3352,
        "meta_ra_of_asc_node": 44.8579,
        "meta_arg_of_pericenter": 82.6358,
        "meta_mean_anomaly": 277.6223,
        "meta_ephemeris_type": 0,
        "meta_classification_type": "U",
        "meta_norad_cat_id": 43831,
        "meta_element_set_no": 999,
        "meta_rev_at_epoch": 38690,
        "meta_bstar": 0.00036816447,
        "meta_mean_motion_dot": 9.307e-05,
        "meta_mean_motion_ddot": 0,
        "tle_line1": "1 43831U 18102A   25344.62648416  .00009307  00000+0  36816-3 0  9991",
        "tle_line2": "2 43831  97.3352  44.8579 0011811  82.6358 277.6223 15.25614394386906"
      },
      "geometry": {
        "type": "Point",
        "coordinates": [
          -41.59871265128348,
          82.64787243789172
        ]
      }
    },
    {
      "type": "Feature",
      "properties": {
        "norad_id": 43833,
        "name": "SAUDISAT 5B",
        "group": "resource",
        "lat": 39.91794874625293,
        "lon": -125.93817619452017,
        "alt_km": 479.9757936586984,
        "timestamp": "2025-12-10T21:43:21.744272+00:00",
        "meta_object_name": "SAUDISAT 5B",
        "meta_object_id": "2018-102C",
        "meta_epoch": "2025-12-10T14:49:08.397984",
        "meta_mean_motion": 15.25967264,
        "meta_eccentricity": 0.00125131,
        "meta_inclination": 97.3447,
        "meta_ra_of_asc_node": 47.5839,
        "meta_arg_of_pericenter": 85.094,
        "meta_mean_anomaly": 275.1727,
        "meta_ephemeris_type": 0,
        "meta_classification_type": "U",
        "meta_norad_cat_id": 43833,
        "meta_element_set_no": 999,
        "meta_rev_at_epoch": 38701,
        "meta_bstar": 0.00035555313,
        "meta_mean_motion_dot": 9.084e-05,
        "meta_mean_motion_ddot": 0,
        "tle_line1": "1 43833U 18102C   25344.61745831  .00009084  00000+0  35555-3 0  9992",
        "tle_line2": "2 43833  97.3447  47.5839 0012513  85.0940 275.1727 15.25967264387018"
      },
      "geometry": {
        "type": "Point",
        "coordinates": [
          -125.93817619452017,
          39.91794874625293
        ]
      }
    },
    {
      "type": "Feature",
      "properties": {
        "norad_id": 44622,
        "name": "GAOFEN-10R",
        "group": "resource",
        "lat": 7.2986578009401875,
        "lon": -68.63157118909872,
        "alt_km": 618.2627233737921,
        "timestamp": "2025-12-10T21:43:21.744282+00:00",
        "meta_object_name": "GAOFEN-10R",
        "meta_object_id": "2019-066A",
        "meta_epoch": "2025-12-10T15:12:40.821984",
        "meta_mean_motion": 14.82780843,
        "meta_eccentricity": 0.00079775,
        "meta_inclination": 98.0276,
        "meta_ra_of_asc_node": 292.1318,
        "meta_arg_of_pericenter": 47.8344,
        "meta_mean_anomaly": 312.3546,
        "meta_ephemeris_type": 0,
        "meta_classification_type": "U",
        "meta_norad_cat_id": 44622,
        "meta_element_set_no": 999,
        "meta_rev_at_epoch": 33443,
        "meta_bstar": 0.00034315592,
        "meta_mean_motion_dot": 2.721e-05,
        "meta_mean_motion_ddot": 0,
        "tle_line1": "1 44622U 19066A   25344.63380581  .00002721  00000+0  34316-3 0  9993",
        "tle_line2": "2 44622  98.0276 292.1318 0007977  47.8344 312.3546 14.82780843334434"
      },
      "geometry": {
        "type": "Point",
        "coordinates": [
          -68.63157118909872,
          7.2986578009401875
        ]
      }
    },
    {
      "type": "Feature",
      "properties": {
        "norad_id": 44804,
        "name": "CARTOSAT-3",
        "group": "resource",
        "lat": -68.21158690650667,
        "lon": 63.641806188730136,
        "alt_km": 524.2493517814692,
        "timestamp": "2025-12-10T21:43:21.744293+00:00",
        "meta_object_name": "CARTOSAT-3",
        "meta_object_id": "2019-081A",
        "meta_epoch": "2025-12-10T14:07:31.315296",
        "meta_mean_motion": 15.19342567,
        "meta_eccentricity": 0.00139869,
        "meta_inclination": 97.4579,
        "meta_ra_of_asc_node": 44.1996,
        "meta_arg_of_pericenter": 93.5404,
        "meta_mean_anomaly": 266.7431,
        "meta_ephemeris_type": 0,
        "meta_classification_type": "U",
        "meta_norad_cat_id": 44804,
        "meta_element_set_no": 999,
        "meta_rev_at_epoch": 33483,
        "meta_bstar": 0.00036028009,
        "meta_mean_motion_dot": 7.566e-05,
        "meta_mean_motion_ddot": 0,
        "tle_line1": "1 44804U 19081A   25344.58855689  .00007566  00000+0  36028-3 0  9996",
        "tle_line2": "2 44804  97.4579  44.1996 0013986  93.5404 266.7431 15.19342567334831"
      },
      "geometry": {
        "type": "Point",
        "coordinates": [
          63.641806188730136,
          -68.21158690650667
        ]
      }
    },
    {
      "type": "Feature",
      "properties": {
        "norad_id": 44819,
        "name": "GAOFEN-12 01",
        "group": "resource",
        "lat": -69.84472646723793,
        "lon": 13.201405448776063,
        "alt_km": 633.9102659395548,
        "timestamp": "2025-12-10T21:43:21.744303+00:00",
        "meta_object_name": "GAOFEN-12 01",
        "meta_object_id": "2019-082A",
        "meta_epoch": "2025-12-10T15:33:25.114176",
        "meta_mean_motion": 14.80653592,
        "meta_eccentricity": 0.00012183,
        "meta_inclination": 97.8127,
        "meta_ra_of_asc_node": 350.9841,
        "meta_arg_of_pericenter": 247.6602,
        "meta_mean_anomaly": 112.4482,
        "meta_ephemeris_type": 0,
        "meta_classification_type": "U",
        "meta_norad_cat_id": 44819,
        "meta_element_set_no": 999,
        "meta_rev_at_epoch": 32619,
        "meta_bstar": 0.00011569847,
        "meta_mean_motion_dot": 8.38e-06,
        "meta_mean_motion_ddot": 0,
        "tle_line1": "1 44819U 19082A   25344.64820734  .00000838  00000+0  11570-3 0  9993",
        "tle_line2": "2 44819  97.8127 350.9841 0001218 247.6602 112.4482 14.80653592326197"
      },
      "geometry": {
        "type": "Point",
        "coordinates": [
          13.201405448776063,
          -69.84472646723793
        ]
      }
    }
  ]
}